{"type": "FeatureCollection", "features": [ {"type": "Feature", "properties": {"norad_id": 36045, "name": "COSMOS 2251 DEB", "group": "cosmos-2251-debris", "lat": -11.336953510440436, "lon": -118.79916476037596, "alt_km": 682.3576997541477, "timestamp": "2025-12-13T08:49:16.088664+00:00", "meta": {"OBJECT_NAME": "COSMOS 2251 DEB", "OBJECT_ID": "1993-036AXG", "EPOCH": "2025-12-11T13:29:08.197152", "MEAN_MOTION": 14.69806465, "ECCENTRICITY": 0.00482484, "INCLINATION": 73.7636, "RA_OF_ASC_NODE": 61.4081, "ARG_OF_PERICENTER": 75.4727, "MEAN_ANOMALY": 285.1788, "EPHEMERIS_TYPE": 0, "CLASSIFICATION_TYPE": "U", "NORAD_CAT_ID": 36045, "ELEMENT_SET_NO": 999, "REV_AT_EPOCH": 8371, "BSTAR": 0.0031629771, "MEAN_MOTION_DOT": 0.00019249, "MEAN_MOTION_DDOT": 0}, "tle": {"line1": "1 36045U 93036AXG 25345.56190043  .00019249  00000+0  31630-2 0  9995", "line2": "2 36045  73.7636  61.4081 0048248  75.4727 285.1788 14.69806465 83717"}}, "geometry": {"type": "Point", "coordinates": [-118.79916476037596, -11.336953510440436]}}, {"type": "Feature", "properties": {"norad_id": 36046, "name": "COSMOS 2251 DEB", "group": "cosmos-2251-debris", "lat": -57.835277190036706, "lon": 122.40406473995529, "alt_km": 722.1129362710326, "timestamp": "2025-12-13T08:49:16.088674+00:00", "meta": {"OBJECT_NAME": "COSMOS 2251 DEB", "OBJECT_ID": "1993-036AXH", "EPOCH": "2025-12-11T13:55:44.742144", "MEAN_MOTION": 14.65256502, "ECCENTRICITY": 0.00555409, "INCLINATION": 74.0167, "RA_OF_ASC_NODE": 278.7315, "ARG_OF_PERICENTER": 65.0167, "MEAN_ANOMALY": 113.2928, "EPHEMERIS_TYPE": 0, "CLASSIFICATION_TYPE": "U", "NORAD_CAT_ID": 36046, "ELEMENT_SET_NO": 999, "REV_AT_EPOCH": 63986, "BSTAR": 0.001021587, "MEAN_MOTION_DOT": 5.605e-05, "MEAN_MOTION_DDOT": 0}, "tle": {"line1": "1 36046U 93036AXH 25345.58037896  .00005605  00000+0  10216-2 0  9992", "line2": "2 36046  74.0167 278.7315 0055540  65.0167 113.2928 14.65256502639867"}}, "geometry": {"type": "Point", "coordinates": [122.40406473995529, -57.835277190036706]}}, {"type": "Feature", "properties": {"norad_id": 36047, "name": "COSMOS 2251 DEB", "group": "cosmos-2251-debris", "lat": -58.63549405509202, "lon": -179.10100941564988, "alt_km": 588.6286071954019, "timestamp": "2025-12-13T08:49:16.088683+00:00", "meta": {"OBJECT_NAME": "COSMOS 2251 DEB", "OBJECT_ID": "1993-036AXJ", "EPOCH": "2025-12-12T17:17:41.191296", "MEAN_MOTION": 14.95943027, "ECCENTRICITY": 0.00082166, "INCLINATION": 74.0363, "RA_OF_ASC_NODE": 334.1956, "ARG_OF_PERICENTER": 0.4947, "MEAN_ANOMALY": 359.6244, "EPHEMERIS_TYPE": 0, "CLASSIFICATION_TYPE": "U", "NORAD_CAT_ID": 36047, "ELEMENT_SET_NO": 999, "REV_AT_EPOCH": 65939, "BSTAR": 0.0027836601, "MEAN_MOTION_DOT": 0.0003131, "MEAN_MOTION_DDOT": 0}, "tle": {"line1": "1 36047U 93036AXJ 25346.72061564  .00031310  00000+0  27837-2 0  9998", "line2": "2 36047  74.0363 334.1956 0008216   0.4947 359.6244 14.95943027659396"}}, "geometry": {"type": "Point", "coordinates": [-179.10100941564988, -58.63549405509202]}}, {"type": "Feature", "properties": {"norad_id": 36048, "name": "COSMOS 2251 DEB", "group": "cosmos-2251-debris", "lat": 39.04074118353333, "lon": -48.4655797681216, "alt_km": 750.7839139014213, "timestamp": "2025-12-13T08:49:16.088694+00:00", "meta": {"OBJECT_NAME": "COSMOS 2251 DEB", "OBJECT_ID": "1993-036AXK", "EPOCH": "2025-12-12T21:05:00.550176", "MEAN_MOTION": 14.37852593, "ECCENTRICITY": 0.00266374, "INCLINATION": 74.0569, "RA_OF_ASC_NODE": 299.0293, "ARG_OF_PERICENTER": 349.0674, "MEAN_ANOMALY": 41.1669, "EPHEMERIS_TYPE": 0, "CLASSIFICATION_TYPE": "U", "NORAD_CAT_ID": 36048, "ELEMENT_SET_NO": 999, "REV_AT_EPOCH": 85504, "BSTAR": 0.00045621614, "MEAN_MOTION_DOT": 1.355e-05, "MEAN_MOTION_DDOT": 0}, "tle": {"line1": "1 36048U 93036AXK 25346.87847859  .00001355  00000+0  45622-3 0  9993", "line2": "2 36048  74.0569 299.0293 0026637 349.0674  41.1669 14.37852593855041"}}, "geometry": {"type": "Point", "coordinates": [-48.4655797681216, 39.04074118353333]}}, {"type": "Feature", "properties": {"norad_id": 36049, "name": "COSMOS 2251 DEB", "group": "cosmos-2251-debris", "lat": -20.85559553332396, "lon": -55.75674472851626, "alt_km": 683.5147988997069, "timestamp": "2025-12-13T08:49:16.088704+00:00", "meta": {"OBJECT_NAME": "COSMOS 2251 DEB", "OBJECT_ID": "1993-036AXL", "EPOCH": "2025-12-12T15:28:50.877120", "MEAN_MOTION": 14.62144824, "ECCENTRICITY": 0.00107751, "INCLINATION": 74.03, "RA_OF_ASC_NODE": 119.3632, "ARG_OF_PERICENTER": 206.0125, "MEAN_ANOMALY": 154.0501, "EPHEMERIS_TYPE": 0, "CLASSIFICATION_TYPE": "U", "NORAD_CAT_ID": 36049, "ELEMENT_SET_NO": 999, "REV_AT_EPOCH": 85363, "BSTAR": 0.0021295048, "MEAN_MOTION_DOT": 0.00010708, "MEAN_MOTION_DDOT": 0}, "tle": {"line1": "1 36049U 93036AXL 25346.64503330  .00010708  00000+0  21295-2 0  9993", "line2": "2 36049  74.0300 119.3632 0010775 206.0125 154.0501 14.62144824853636"}}, "geometry": {"type": "Point", "coordinates": [-55.75674472851626, -20.85559553332396]}}, {"type": "Feature", "properties": {"norad_id": 36050, "name": "COSMOS 2251 DEB", "group": "cosmos-2251-debris", "lat": 1.534992038944712, "lon": -166.8140233288991, "alt_km": 565.0692921714617, "timestamp": "2025-12-13T08:49:16.088714+00:00", "meta": {"OBJECT_NAME": "COSMOS 2251 DEB", "OBJECT_ID": "1993-036AXM", "EPOCH": "2025-12-12T20:01:02.904960", "MEAN_MOTION": 15.01035919, "ECCENTRICITY": 0.00886682, "INCLINATION": 74.031, "RA_OF_ASC_NODE": 193.8323, "ARG_OF_PERICENTER": 273.4454, "MEAN_ANOMALY": 85.6595, "EPHEMERIS_TYPE": 0, "CLASSIFICATION_TYPE": "U", "NORAD_CAT_ID": 36050, "ELEMENT_SET_NO": 999, "REV_AT_EPOCH": 67036, "BSTAR": 0.00073627108, "MEAN_MOTION_DOT": 0.00010204, "MEAN_MOTION_DDOT": 0}, "tle": {"line1": "1 36050U 93036AXM 25346.83406140  .00010204  00000+0  73627-3 0  9995", "line2": "2 36050  74.0310 193.8323 0088668 273.4454  85.6595 15.01035919670369"}}, "geometry": {"type": "Point", "coordinates": [-166.8140233288991, 1.534992038944712]}}, {"type": "Feature", "properties": {"norad_id": 36053, "name": "COSMOS 2251 DEB", "group": "cosmos-2251-debris", "lat": 10.566960033866268, "lon": -31.61292245792697, "alt_km": 694.8394267393887, "timestamp": "2025-12-13T08:49:16.088746+00:00", "meta": {"OBJECT_NAME": "COSMOS 2251 DEB", "OBJECT_ID": "1993-036AXQ", "EPOCH": "2025-12-12T04:02:28.675680", "MEAN_MOTION": 14.57165244, "ECCENTRICITY": 0.00326357, "INCLINATION": 73.8708, "RA_OF_ASC_NODE": 153.7815, "ARG_OF_PERICENTER": 103.0274, "MEAN_ANOMALY": 257.4536, "EPHEMERIS_TYPE": 0, "CLASSIFICATION_TYPE": "U", "NORAD_CAT_ID": 36053, "ELEMENT_SET_NO": 999, "REV_AT_EPOCH": 87436, "BSTAR": 0.0023423536, "MEAN_MOTION_DOT": 0.00010633, "MEAN_MOTION_DDOT": 0}, "tle": {"line1": "1 36053U 93036AXQ 25346.16838745  .00010633  00000+0  23424-2 0  9999", "line2": "2 36053  73.8708 153.7815 0032635 103.0274 257.4536 14.57165244874367"}}, "geometry": {"type": "Point", "coordinates": [-31.61292245792697, 10.566960033866268]}}, {"type": "Feature", "properties": {"norad_id": 36058, "name": "COSMOS 2251 DEB", "group": "cosmos-2251-debris", "lat": -57.46884147851927, "lon": 5.574774583259612, "alt_km": 725.3743849960601, "timestamp": "2025-12-13T08:49:16.088759+00:00", "meta": {"OBJECT_NAME": "COSMOS 2251 DEB", "OBJECT_ID": "1993-036AXV", "EPOCH": "2025-12-09T21:09:28.031616", "MEAN_MOTION": 14.58669067, "ECCENTRICITY": 0.00447805, "INCLINATION": 74.0233, "RA_OF_ASC_NODE": 38.9054, "ARG_OF_PERICENTER": 173.9779, "MEAN_ANOMALY": 186.1934, "EPHEMERIS_TYPE": 0, "CLASSIFICATION_TYPE": "U", "NORAD_CAT_ID": 36058, "ELEMENT_SET_NO": 999, "REV_AT_EPOCH": 66069, "BSTAR": 0.00079291916, "MEAN_MOTION_DOT": 3.72e-05, "MEAN_MOTION_DDOT": 0}, "tle": {"line1": "1 36058U 93036AXV 25343.88157444  .00003720  00000+0  79292-3 0  9994", "line2": "2 36058  74.0233  38.9054 0044780 173.9779 186.1934 14.58669067660699"}}, "geometry": {"type": "Point", "coordinates": [5.574774583259612, -57.46884147851927]}}, {"type": "Feature", "properties": {"norad_id": 36060, "name": "COSMOS 2251 DEB", "group": "cosmos-2251-debris", "lat": 15.853260155926536, "lon": 48.737195953666856, "alt_km": 762.851592701486, "timestamp": "2025-12-13T08:49:16.088769+00:00", "meta": {"OBJECT_NAME": "COSMOS 2251 DEB", "OBJECT_ID": "1993-036AXX", "EPOCH": "2025-12-12T23:44:25.062144", "MEAN_MOTION": 14.42000577, "ECCENTRICITY": 0.00152909, "INCLINATION": 74.0287, "RA_OF_ASC_NODE": 234.1035, "ARG_OF_PERICENTER": 330.9868, "MEAN_ANOMALY": 29.0436, "EPHEMERIS_TYPE": 0, "CLASSIFICATION_TYPE": "U", "NORAD_CAT_ID": 36060, "ELEMENT_SET_NO": 999, "REV_AT_EPOCH": 85013, "BSTAR": 0.00049024599, "MEAN_MOTION_DOT": 1.584e-05, "MEAN_MOTION_DDOT": 0}, "tle": {"line1": "1 36060U 93036AXX 25346.98917896  .00001584  00000+0  49025-3 0  9993", "line2": "2 36060  74.0287 234.1035 0015290 330.9868  29.0436 14.42000577850138"}}, "geometry": {"type": "Point", "coordinates": [48.737195953666856, 15.853260155926536]}}, {"type": "Feature", "properties": {"norad_id": 36061, "name": "COSMOS 2251 DEB", "group": "cosmos-2251-debris", "lat": -32.75046617832512, "lon": -12.003154630988467, "alt_km": 798.5746363514845, "timestamp": "2025-12-13T08:49:16.088779+00:00", "meta": {"OBJECT_NAME": "COSMOS 2251 DEB", "OBJECT_ID": "1993-036AXY", "EPOCH": "2025-12-08T08:24:20.190816", "MEAN_MOTION": 14.33698686, "ECCENTRICITY": 0.00368149, "INCLINATION": 74.0243, "RA_OF_ASC_NODE": 7.7948, "ARG_OF_PERICENTER": 97.1574, "MEAN_ANOMALY": 263.3766, "EPHEMERIS_TYPE": 0, "CLASSIFICATION_TYPE": "U", "NORAD_CAT_ID": 36061, "ELEMENT_SET_NO": 999, "REV_AT_EPOCH": 65041, "BSTAR": 0.00050814435, "MEAN_MOTION_DOT": 1.395e-05, "MEAN_MOTION_DDOT": 0}, "tle": {"line1": "1 36061U 93036AXY 25342.35023369  .00001395  00000+0  50814-3 0  9992", "line2": "2 36061  74.0243   7.7948 0036814  97.1574 263.3766 14.33698686650411"}}, "geometry": {"type": "Point", "coordinates": [-12.003154630988467, -32.75046617832512]}}]}